NORAD_CAT_ID,OBJECT_NAME,OBJECT_TYPE,EPOCH,MEAN_MOTION,ECCENTRICITY,INCLINATION,RA_OF_ASC_NODE,ARG_OF_PERICENTER,MEAN_ANOMALY,BSTAR,MEAN_MOTION_DOT,MEAN_MOTION_DDOT,TLE_LINE0,TLE_LINE1,TLE_LINE2,SEMIMAJOR_AXIS,PERIOD,APOGEE,PERIGEE,DECAYED
52286.0,STARLINK-3802,PAYLOAD,2023-11-14 08:27:28,15.08849331,0.0001796,53.2169,298.4767,100.2503,259.8692,0.00020744,3.016e-05,0.0,0 STARLINK-3802,1 52286U 22041AB  23318.35240906  .00003016  00000-0  20744-3 0  9998,2 52286  53.2169 298.4767 0001796 100.2503 259.8692 15.08849331 86735,6917.852,95.437,540.959,538.474,0.0
52286.0,STARLINK-3802,PAYLOAD,2023-11-14 22:45:56,15.08837542,0.0001764,53.2173,295.8007,93.8912,266.2282,6.2453e-05,7.06e-06,0.0,0 STARLINK-3802,1 52286U 22041AB  23318.94857530  .00000706  00000-0  62453-4 0  9997,2 52286  53.2173 295.8007 0001764  93.8912 266.2282 15.08837542 86822,6917.888,95.438,540.973,538.533,0.0
52286.0,STARLINK-3802,PAYLOAD,2023-11-15 03:32:06,15.0883864,0.0001786,53.2174,294.9085,98.5031,261.6163,0.00030978,4.645e-05,0.0,0 STARLINK-3802,1 52286U 22041AB  23319.14729619  .00004645  00000-0  30978-3 0  9998,2 52286  53.2174 294.9085 0001786  98.5031 261.6163 15.08838640 88073,6917.885,95.438,540.985,538.514,0.0
52286.0,STARLINK-3802,PAYLOAD,2023-11-15 05:07:29,15.08837821,0.000179,53.2179,294.612,96.3327,263.7869,0.00030123,4.509e-05,0.0,0 STARLINK-3802,1 52286U 22041AB  23319.21353688  .00004509  00000-0  30123-3 0  9996,2 52286  53.2179 294.6120 0001790  96.3327 263.7869 15.08837821 86865,6917.887,95.438,540.99,538.514,0.0
52286.0,STARLINK-3802,PAYLOAD,2023-11-16 04:58:16,15.08843646,0.0001787,53.2177,290.1514,95.976,264.1436,0.00041875,6.383e-05,0.0,0 STARLINK-3802,1 52286U 22041AB  23320.20713904  .00006383  00000-0  41875-3 0  9996,2 52286  53.2177 290.1514 0001787  95.9760 264.1436 15.08843646 88233,6917.869,95.437,540.97,538.498,0.0
52286.0,STARLINK-3802,PAYLOAD,2023-11-16 22:27:31,15.0884028,0.0001738,53.2183,286.8807,93.6481,266.4709,0.00014662,2.046e-05,0.0,0 STARLINK-3802,1 52286U 22041AB  23320.93578004  .00002046  00000-0  14662-3 0  9992,2 52286  53.2183 286.8807 0001738  93.6481 266.4709 15.08840280 87124,6917.88,95.438,540.947,538.542,0.0
52286.0,STARLINK-3802,PAYLOAD,2023-11-17 04:49:03,15.08841585,0.0001746,53.2183,285.6921,94.6733,265.4459,0.00016082,2.272e-05,0.0,0 STARLINK-3802,1 52286U 22041AB  23321.20073999  .00002272  00000-0  16082-3 0  9995,2 52286  53.2183 285.6921 0001746  94.6733 265.4459 15.08841585 88387,6917.876,95.437,540.948,538.533,0.0
52286.0,STARLINK-3802,PAYLOAD,2023-11-17 07:59:50,15.08841776,0.0001739,53.2182,285.0971,94.1876,265.9314,0.00014368,1.999e-05,0.0,0 STARLINK-3802,1 52286U 22041AB  23321.33321963  .00001999  00000-0  14368-3 0  9996,2 52286  53.2182 285.0971 0001739  94.1876 265.9314 15.08841776 87184,6917.875,95.437,540.943,538.537,0.0
52286.0,STARLINK-3802,PAYLOAD,2023-11-18 04:39:51,15.08835474,0.0001713,53.2174,281.2313,96.3891,263.7296,0.00032094,4.823e-05,0.0,0 STARLINK-3802,1 52286U 22041AB  23322.19434346  .00004823  00000-0  32094-3 0  9996,2 52286  53.2174 281.2313 0001713  96.3891 263.7296 15.08835474 88539,6917.894,95.438,540.944,538.574,0.0
52286.0,STARLINK-3802,PAYLOAD,2023-11-18 14:12:09,15.0884307,0.0001538,53.2166,279.4454,89.7228,270.3941,8.1271e-05,1.006e-05,0.0,0 STARLINK-3802,1 52286U 22041AB  23322.59177897  .00001006  00000-0  81271-4 0  9997,2 52286  53.2166 279.4454 0001538  89.7228 270.3941 15.08843070 87373,6917.871,95.437,540.8,538.672,0.0
52286.0,STARLINK-3802,PAYLOAD,2023-11-19 06:06:01,15.08843182,0.000145,53.2191,276.4719,82.3706,277.745,0.00012804,1.751e-05,0.0,0 STARLINK-3802,1 52286U 22041AB  23323.25418146  .00001751  00000-0  12804-3 0  9998,2 52286  53.2191 276.4719 0001450  82.3706 277.7450 15.08843182 88691,6917.871,95.437,540.739,538.733,0.0
52286.0,STARLINK-3802,PAYLOAD,2023-11-19 14:02:56,15.0884348,0.0001811,53.2185,274.9853,84.736,275.3839,0.000128,1.75e-05,0.0,0 STARLINK-3802,1 52286U 22041AB  23323.58538045  .00001750  00000-0  12800-3 0  9990,2 52286  53.2185 274.9853 0001811  84.7360 275.3839 15.08843480 87526,6917.87,95.437,540.988,538.482,0.0
52286.0,STARLINK-3802,PAYLOAD,2023-11-20 13:53:43,15.08841109,0.0001741,53.2174,270.5252,87.4985,272.6206,2.6365e-05,1.32e-06,0.0,0 STARLINK-3802,1 52286U 22041AB  23324.57898035  .00000132  00000-0  26365-4 0  9993,2 52286  53.2174 270.5252 0001741  87.4985 272.6206 15.08841109 87674,6917.877,95.437,540.946,538.538,0.0
52286.0,STARLINK-3802,PAYLOAD,2023-11-20 20:15:16,15.08838803,0.0001776,53.2176,269.3366,83.31,276.8094,5.2241e-05,5.43e-06,0.0,0 STARLINK-3802,1 52286U 22041AB  23324.84394225  .00000543  00000-0  52241-4 0  9993,2 52286  53.2176 269.3366 0001776  83.3100 276.8094 15.08838803 87713,6917.884,95.438,540.978,538.52,0.0
52286.0,STARLINK-3802,PAYLOAD,2023-11-21 05:47:34,15.08850886,0.0001713,53.2174,267.5514,86.0571,274.0617,0.00021018,3.06e-05,0.0,0 STARLINK-3802,1 52286U 22041AB  23325.24137673  .00003060  00000-0  21018-3 0  9994,2 52286  53.2174 267.5514 0001713  86.0571 274.0617 15.08850886 87771,6917.847,95.437,540.897,538.527,0.0
52286.0,STARLINK-3802,PAYLOAD,2023-11-22 02:27:35,15.08844942,0.0001785,53.2167,263.6849,89.6109,270.5088,0.00015332,2.153e-05,0.0,0 STARLINK-3802,1 52286U 22041AB  23326.10249885  .00002153  00000-0  15332-3 0  9993,2 52286  53.2167 263.6849 0001785  89.6109 270.5088 15.08844942 89126,6917.865,95.437,540.965,538.495,0.0
52286.0,STARLINK-3802,PAYLOAD,2023-11-22 05:38:21,15.08853222,0.0001841,53.2176,263.0867,87.6232,272.4971,0.00030671,4.598e-05,0.0,0 STARLINK-3802,1 52286U 22041AB  23326.23497624  .00004598  00000-0  30671-3 0  9991,2 52286  53.2176 263.0867 0001841  87.6232 272.4971 15.08853222 87927,6917.84,95.437,540.979,538.431,0.0
52286.0,STARLINK-3802,PAYLOAD,2023-11-23 02:18:22,15.08856107,0.0001803,53.2172,259.2258,102.2599,257.8595,0.00034392,5.192e-05,0.0,0 STARLINK-3802,1 52286U 22041AB  23327.09609191  .00005192  00000-0  34392-3 0  9995,2 52286  53.2172 259.2258 0001803 102.2599 257.8595 15.08856107 89276,6917.831,95.437,540.943,538.449,0.0
52286.0,STARLINK-3802,PAYLOAD,2023-11-23 19:47:37,15.08830879,0.0001704,53.2176,255.9456,109.9831,250.1344,-9.5143e-05,-1.802e-05,0.0,0 STARLINK-3802,1 52286U 22041AB  23327.82474140 -.00001802  00000-0 -95143-4 0  9998,2 52286  53.2176 255.9456 0001704 109.9831 250.1344 15.08830879 89384,6917.908,95.438,540.952,538.594,0.0
52286.0,STARLINK-3802,PAYLOAD,2023-11-24 00:33:47,15.08828248,0.0001691,53.2169,255.0561,109.6272,250.4902,-0.00017698,-3.103e-05,0.0,0 STARLINK-3802,1 52286U 22041AB  23328.02346372 -.00003103  00000-0 -17698-3 0  9990,2 52286  53.2169 255.0561 0001691 109.6272 250.4902 15.08828248 88193,6917.916,95.438,540.951,538.611,0.0
52286.0,STARLINK-3802,PAYLOAD,2023-11-24 19:38:25,15.08833025,0.000156,53.2159,251.4843,107.811,252.3053,1.6829e-05,-2e-07,0.0,0 STARLINK-3802,1 52286U 22041AB  23328.81834886 -.00000020  00000-0  16829-4 0  9999,2 52286  53.2159 251.4843 0001560 107.8110 252.3053 15.08833025 88312,6917.902,95.438,540.846,538.688,0.0
52286.0,STARLINK-3802,PAYLOAD,2023-11-25 00:24:34,15.08845116,0.0001521,53.2171,250.6022,93.4331,266.6835,0.00031771,4.773e-05,0.0,0 STARLINK-3802,1 52286U 22041AB  23329.01706732  .00004773  00000-0  31771-3 0  9990,2 52286  53.2171 250.6022 0001521  93.4331 266.6835 15.08845116 89566,6917.865,95.437,540.782,538.678,0.0
52286.0,STARLINK-3802,PAYLOAD,2023-11-25 05:10:44,15.08851385,0.0001608,53.2173,249.706,98.1916,261.9258,0.0007227,0.00011236,0.0,0 STARLINK-3802,1 52286U 22041AB  23329.21578806  .00011236  00000-0  72270-3 0  9992,2 52286  53.2173 249.7060 0001608  98.1916 261.9258 15.08851385 88376,6917.846,95.437,540.823,538.598,0.0
52286.0,STARLINK-3802,PAYLOAD,2023-11-25 22:39:58,15.08864146,0.0001441,53.2174,246.439,89.4798,270.6359,0.00078155,0.0001218,0.0,0 STARLINK-3802,1 52286U 22041AB  23329.94442234  .00012180  00000-0  78155-3 0  9994,2 52286  53.2174 246.4390 0001441  89.4798 270.6359 15.08864146 88483,6917.807,95.436,540.668,538.675,0.0
52286.0,STARLINK-3802,PAYLOAD,2023-11-26 00:15:20,15.08884921,0.0001536,53.216,246.1395,100.0317,260.0849,0.0013081,0.00020617,0.0,0 STARLINK-3802,1 52286U 22041AB  23330.01065693  .00020617  00000-0  13081-2 0  9994,2 52286  53.2160 246.1395 0001536 100.0317 260.0849 15.08884921 89719,6917.743,95.435,540.671,538.546,0.0
52286.0,STARLINK-3802,PAYLOAD,2023-11-26 22:30:45,15.0883131,0.0001872,53.2172,241.9744,111.4191,248.7001,-7.8197e-05,-1.532e-05,0.0,0 STARLINK-3802,1 52286U 22041AB  23330.93802727 -.00001532  00000-0 -78197-4 0  9990,2 52286  53.2172 241.9744 0001872 111.4191 248.7001 15.08831310 88639,6917.907,95.438,541.067,538.477,0.0
52286.0,STARLINK-3802,PAYLOAD,2023-11-27 03:16:55,15.08829302,0.000166,53.2174,241.083,103.8547,256.263,-0.00022448,-3.858e-05,0.0,0 STARLINK-3802,1 52286U 22041AB  23331.13675152 -.00003858  00000-0 -22448-3 0  9993,2 52286  53.2174 241.0830 0001660 103.8547 256.2630 15.08829302 89881,6917.913,95.438,540.926,538.63,0.0
52286.0,STARLINK-3802,PAYLOAD,2023-11-27 22:21:32,15.0884599,0.0001481,53.2166,237.5179,108.0825,252.0329,0.00011133,1.485e-05,0.0,0 STARLINK-3802,1 52286U 22041AB  23331.93162742  .00001485  00000-0  11133-3 0  9998,2 52286  53.2166 237.5179 0001481 108.0825 252.0329 15.08845990 88783,6917.862,95.437,540.752,538.703,0.0
52286.0,STARLINK-3802,PAYLOAD,2023-11-28 01:32:18,15.08854436,0.0001513,53.2167,236.9234,101.7472,258.369,0.00035212,5.323e-05,0.0,0 STARLINK-3802,1 52286U 22041AB  23332.06410527  .00005323  00000-0  35212-3 0  9999,2 52286  53.2167 236.9234 0001513 101.7472 258.3690 15.08854436 90028,6917.836,95.437,540.748,538.655,0.0
52286.0,STARLINK-3802,PAYLOAD,2023-11-28 03:07:41,15.08857428,0.0001584,53.2168,236.6245,110.5684,249.5478,0.00074487,0.00011592,0.0,0 STARLINK-3802,1 52286U 22041AB  23332.13034660  .00011592  00000-0  74487-3 0  9999,2 52286  53.2168 236.6245 0001584 110.5684 249.5478 15.08857428 88813,6917.827,95.436,540.788,538.596,0.0
